0 CZ-2C R/B
1 31114U 07010B   19354.67912270 -.00000008 +00000-0 +14583-4 0  9998
2 31114 098.2817 214.3801 0060830 071.3428 289.4341 14.19303802657503
0 CZ-2C R/B
1 31114U 07010B   19355.73657925 -.00000001  00000-0  18219-4 0  9992
2 31114  98.2816 215.3692 0060821  68.3194 292.4446 14.19303845657672
0 EGYPTSAT 1
1 31117U 07012A   19354.88312322 +.00000067 +00000-0 +17730-4 0  9999
2 31117 097.7439 329.2237 0005888 158.1561 201.9899 14.72948626680324
0 EGYPTSAT 1
1 31117U 07012A   19355.49451429  .00000071  00000-0  18354-4 0  9997
2 31117  97.7439 329.8068 0005936 156.3144 203.8339 14.72948787680961
0 SAUDISAT 3
1 31118U 07012B   19355.44351846 -.00000027  00000-0  33490-5 0  9996
2 31118  97.8442 315.4838 0014377 210.3376 149.6999 14.69149609679688
0 SAUDISAT 3
1 31118U 07012B   19355.78405756 -.00000027  00000-0  34540-5 0  9990
2 31118  97.8442 315.8108 0014403 209.1923 150.8479 14.69149615679736
0 SAUDISAT 3
1 31118U 07012B   19355.17108718 -.00000025  00000-0  37662-5 0  9997
2 31118  97.8442 315.2222 0014361 211.2499 148.7855 14.69149587679644
0 SAUDISAT 3
1 31118U 07012B   19354.89865593 -.00000026 +00000-0 +36178-5 0  9998
2 31118 097.8441 314.9607 0014344 212.1769 147.8563 14.69149569679553
0 SAUDICOMSAT 7
1 31119U 07012C   19354.83511720 +.00000052 +00000-0 +19655-4 0  9991
2 31119 098.0750 299.6337 0061236 062.0565 298.6817 14.61758556675813
0 SAUDICOMSAT 7
1 31119U 07012C   19355.79343559  .00000055  00000-0  20319-4 0  9992
2 31119  98.0751 300.5697 0061229  59.0993 301.6210 14.61758782676003
0 SL-24 DEB
1 31120U 07012D   19354.64046657 +.00000089 +00000-0 +19678-4 0  9999
2 31120 097.6907 013.9977 0005963 246.6884 113.3699 14.76267149682100
0 SL-24 DEB
1 31120U 07012D   19355.31826449  .00000098  00000-0  21042-4 0  9997
2 31120  97.6906  14.6430 0005989 244.1704 115.8889 14.76267370682220
0 SAUDICOMSAT 6
1 31121U 07012E   19354.84591514 +.00000030 +00000-0 +16282-4 0  9993
2 31121 098.1304 294.2004 0077313 144.2047 216.4370 14.58557931674344
0 SAUDICOMSAT 6
1 31121U 07012E   19355.80634447  .00000023  00000-0  14812-4 0  9992
2 31121  98.1305 295.1402 0077370 141.2361 219.4425 14.58558048674553
0 CSTB 1
1 31122U 07012F   19355.80043701  .00000167  00000-0  42271-4 0  9999
2 31122  98.1425 303.0575 0079109 133.3788 227.4038 14.60963893674756
0 CSTB 1
1 31122U 07012F   19354.84158878 +.00000166 +00000-0 +42100-4 0  9994
2 31122 098.1424 302.1143 0079055 136.3504 224.3987 14.60963455674556
0 SL-24 R/B
1 31123U 07012G   19354.92237203 -.00000020 +00000-0 +66614-5 0  9991
2 31123 098.0392 035.7041 0313648 092.6461 077.3752 14.12596868653506
0 SL-24 R/B
1 31123U 07012G   19355.38755060 -.00000032  00000-0  28069-5 0  9993
2 31123  98.0391  36.1225 0313650  91.3005 282.9649 14.12596893653650
0 SAUDICOMSAT 5
1 31124U 07012H   19354.86762647 +.00000064 +00000-0 +21328-4 0  9999
2 31124 098.0389 302.5184 0052142 019.6714 340.6484 14.63460161676544
0 SAUDICOMSAT 5
1 31124U 07012H   19355.14111317  .00000063  00000-0  21120-4 0  9992
2 31124  98.0389 302.7851 0052127  18.8204 341.4910 14.63460215676650
0 SAUDICOMSAT 3
1 31125U 07012J   19355.13932585  .00000079  00000-0  23412-4 0  9993
2 31125  98.0001 305.7943 0042813 336.6468  23.2790 14.65211991677414
0 SAUDICOMSAT 3
1 31125U 07012J   19354.86616541 +.00000078 +00000-0 +23258-4 0  9990
2 31125 098.0000 305.5285 0042835 337.5148 022.4177 14.65211913677301
0 MAST
1 31126U 07012K   19354.76397360 +.00000025 +00000-0 +15805-4 0  9996
2 31126 098.1667 291.3381 0089360 207.3224 152.3260 14.56772940673263
0 MAST
1 31126U 07012K   19355.38214936  .00000022  00000-0  15238-4 0  9999
2 31126  98.1668 291.9440 0089394 205.3832 154.2963 14.56773060673407
0 SAUDICOMSAT 4
1 31127U 07012L   19355.42205567  .00000050  00000-0  19783-4 0  9995
2 31127  98.1032 297.8913 0069340  98.9400 261.9658 14.60272121675269
0 SAUDICOMSAT 4
1 31127U 07012L   19354.87388570 +.00000046 +00000-0 +18991-4 0  9994
2 31127 098.1031 297.3553 0069324 100.6246 260.2772 14.60271957675124
0 LIBERTAD 1
1 31128U 07012M   19355.79268830  .00000040  00000-0  19366-4 0  9994
2 31128  98.1819 291.3562 0095349 233.3377 125.9028 14.56143386672956
0 CP3
1 31129U 07012N   19354.78632676 +.00000079 +00000-0 +27197-4 0  9999
2 31129 098.1829 292.4788 0094149 227.9001 131.4165 14.56863651672914
0 CP3
1 31129U 07012N   19355.40446276  .00000079  00000-0  27238-4 0  9994
2 31129  98.1830 293.0860 0094161 225.9545 133.3870 14.56863824673039
0 CAPE 1
1 31130U 07012P   19355.40163807  .00000081  00000-0  27861-4 0  9997
2 31130  98.1822 291.8353 0094920 231.1181 128.1523 14.56480100672749
0 CAPE 1
1 31130U 07012P   19354.78333984 +.00000079 +00000-0 +27564-4 0  9999
2 31130 098.1821 291.2284 0094896 233.0556 126.1924 14.56479913672668
0 CZ-4 DEB
1 31131U 03049D   19354.10416875 +.00000115 +00000-0 +56946-4 0  9990
2 31131 098.7053 306.7980 0134626 191.8588 229.0549 14.29928214660137
0 CZ-4 DEB
1 31131U 03049D   19355.08384524  .00000120  00000-0  58733-4 0  9995
2 31131  98.7054 307.7778 0134666 188.9757 232.1910 14.29928589660304
0 CP4
1 31132U 07012Q   19355.77889630  .00000080  00000-0  26264-4 0  9993
2 31132  98.1466 298.0025 0081067 152.7857 207.7626 14.59130979674240
0 CP4
1 31132U 07012Q   19354.75026741 +.00000084 +00000-0 +27006-4 0  9995
2 31132 098.1465 296.9931 0080995 155.9780 204.5232 14.59130693674107
0 AEROCUBE 2
1 31133U 07012R   19355.83311472  .00000079  00000-0  25972-4 0  9998
2 31133  98.1464 298.0766 0081083 152.4840 208.0687 14.59156928674241
0 AGILE
1 31135U 07013A   19355.66483350  .00002106  00000-0  30187-4 0  9994
2 31135   2.4669 151.2033 0012351 264.4893  95.3752 15.31973572704572
0 ERS 2 DEB
1 31137U 95021D   19355.40363222  .00000269  00000-0  97564-4 0  9999
2 31137  98.4440 314.3984 0004118  29.3238 124.3445 14.40793751831094
0 ERS 2 DEB
1 31137U 95021D   19354.82409462 +.00000285 +00000-0 +10274-3 0  9991
2 31137 098.4438 313.8263 0004153 030.7752 358.6550 14.40793483830158
0 SATCOM 3 DEB
1 31138U 79101H   19354.82520418 -.00000040 +00000-0 +00000-0 0  9991
2 31138 008.6665 296.5385 4862242 066.6719 049.6621 01.83048628087249
0 SATCOM 3 DEB
1 31138U 79101H   19354.82520418 -.00000040  00000-0  00000+0 0  9990
2 31138   8.6665 296.5385 4862242  66.6719  49.6621  1.83048628 87317
0 SATCOM 3 DEB
1 31138U 79101H   19355.32212152 -.00000038  00000-0  00000+0 0  9996
2 31138   8.6658 296.4890 4861965  66.7685  17.1253  1.83049944 87327
0 CZ-4 DEB
1 31139U 03049E   19354.13009582 +.00000388 +00000-0 +11029-3 0  9998
2 31139 098.2521 319.6229 0092451 346.8934 012.9858 14.48431747667562
0 CZ-4 DEB
1 31139U 03049E   19355.85709419  .00000369  00000-0  10551-3 0  9992
2 31139  98.2523 321.3103 0092347 341.6143  18.1719 14.48433176668310
0 NIMBUS 2 DEB
1 31142U 66040AQ  19355.62345971  .00000644  00000-0  12126-2 0  9995
2 31142 100.5784 213.6798 0048018  57.4813  12.7224 13.42640926624460
0 FENGYUN 1C DEB
1 31146U 99025BGY 19354.47386724 +.00000134 +00000-0 +66799-4 0  9992
2 31146 099.1903 179.9255 0230284 303.2260 054.7029 14.20938412657022
0 FENGYUN 1C DEB
1 31147U 99025BGZ 19354.73957266 +.00002515 +00000-0 +26104-3 0  9997
2 31147 099.1868 177.6298 0117049 027.2768 031.8527 14.86197557676146
0 FENGYUN 1C DEB
1 31147U 99025BGZ 19355.47474233  .00002499  00000-0  25945-3 0  9990
2 31147  99.1867 178.4785 0117018  24.9585   5.2431 14.86201648676632
0 FENGYUN 1C DEB
1 31148U 99025BHA 19355.21203767  .00000333  00000-0  12342-3 0  9997
2 31148  98.8807 132.1660 0158122 346.9711  12.7408 14.32482309662235
0 FENGYUN 1C DEB
1 31149U 99025BHB 19354.03541030 +.00001221 +00000-0 +26191-3 0  9999
2 31149 099.1723 011.4762 0114997 220.8002 168.4694 14.56833759667599
0 FENGYUN 1C DEB
1 31151U 99025BHD 19354.77835220 +.00001068 +00000-0 +66607-3 0  9995
2 31151 099.0453 299.0483 0075611 038.5701 322.0835 14.05605711651614
0 FENGYUN 1C DEB
1 31152U 99025BHE 19354.90558167 +.00000010 +00000-0 +17493-4 0  9999
2 31152 098.3945 015.5519 0133531 063.5545 055.1794 14.34312480667338
0 FENGYUN 1C DEB
1 31152U 99025BHE 19355.31203767  .00000009  00000-0  17015-4 0  9996
2 31152  98.3946  15.9467 0133521  62.3531 353.9165 14.34312499668260
0 FENGYUN 1C DEB
1 31155U 99025BHH 19355.34143126  .00000226  00000-0  17855-3 0  9996
2 31155  99.2029  30.8487 0108017 272.4339 100.8718 13.99213193650800
0 FENGYUN 1C DEB
1 31155U 99025BHH 19354.58277116 +.00000224 +00000-0 +17734-3 0  9992
2 31155 099.2030 030.0866 0107938 274.5317 239.3557 13.99212649649784
0 FENGYUN 1C DEB
1 31157U 99025BHK 19354.92514066 +.00000070 +00000-0 +50071-4 0  9991
2 31157 098.5571 037.1380 0104251 188.2550 297.7999 14.19704218659771
0 FENGYUN 1C DEB
1 31158U 99025BHL 19354.90024046 +.00000511 +00000-0 +26918-3 0  9996
2 31158 098.9399 032.8267 0062036 197.8946 162.0044 14.17509760334441
0 FENGYUN 1C DEB
1 31159U 99025BHM 19354.81565553 +.00000944 +00000-0 +88491-4 0  9995
2 31159 097.6075 005.7906 0328790 318.9059 038.7794 14.63491231672328
0 FENGYUN 1C DEB
1 31160U 99025BHN 19354.74997675 +.00000375 +00000-0 +28818-3 0  9997
2 31160 099.3400 003.2379 0059275 116.4749 244.2511 13.98798078390609
0 FENGYUN 1C DEB
1 31161U 99025BHP 19354.80947402 +.00000248 +00000-0 +17219-3 0  9990
2 31161 098.9833 025.7500 0070258 006.5914 353.6162 14.06715645653795
0 FENGYUN 1C DEB
1 31161U 99025BHP 19355.80524181  .00000249  00000-0  17262-3 0  9995
2 31161  98.9832  26.7387 0070216   3.8006 356.3681 14.06716142654772
0 FENGYUN 1C DEB
1 31163U 99025BHR 19354.59445139 +.00000160 +00000-0 +84891-4 0  9992
2 31163 098.9258 122.7260 0059579 090.3106 270.4900 14.25815100335742
